STARLINK-6239           
1 56423U 23061BB  26067.56304732  .00000631  00000+0  61796-4 0  9995
2 56423  43.0027 177.7115 0001169 275.8336  84.2373 15.02537229156889
PICO-02A021             
1 60538U 24149BY  26068.15390193  .00008488  00000+0  64833-3 0  9999
2 60538  97.6823 147.9080 0004195   9.5557 350.5747 15.02201963 84718
